[{"OBJECT_NAME":"STARLINK-5481","OBJECT_ID":"2023-094AP","EPOCH":"2026-03-09T22:00:01.999584","MEAN_MOTION":15.05368952,"ECCENTRICITY":0.00017431,"INCLINATION":43.0015,"RA_OF_ASC_NODE":16.0381,"ARG_OF_PERICENTER":263.6038,"MEAN_ANOMALY":134.1698,"EPHEMERIS_TYPE":0,"CLASSIFICATION_TYPE":"U","NORAD_CAT_ID":57255,"ELEMENT_SET_NO":999,"REV_AT_EPOCH":573,"BSTAR":0.0021002529,"MEAN_MOTION_DOT":0.00030526,"MEAN_MOTION_DDOT":0},{"OBJECT_NAME":"OV1-13","OBJECT_ID":"1968-026A","EPOCH":"2026-03-09T15:59:09.471840","MEAN_MOTION":7.25825255,"ECCENTRICITY":0.38574237,"INCLINATION":99.9528,"RA_OF_ASC_NODE":2.2538,"ARG_OF_PERICENTER":11.8695,"MEAN_ANOMALY":355.1726,"EPHEMERIS_TYPE":0,"CLASSIFICATION_TYPE":"U","NORAD_CAT_ID":3173,"ELEMENT_SET_NO":999,"REV_AT_EPOCH":53098,"BSTAR":0.00056652782,"MEAN_MOTION_DOT":4.15e-6,"MEAN_MOTION_DDOT":0}]
